start=new Date('2022-06-18T00:00:00.000Z').valueOf();
sats=[{"RCS_SIZE":"LARGE","BSTAR":"0.00011163000000","TLE_LINE1":"1 47635U 21012R   22166.79663451  .00001382  00000-0  11163-3 0  9998","NORAD_CAT_ID":"47635","OBJECT_NAME":"STARLINK-2012","APOAPSIS":"548.268","SITE":"AFETR","GP_ID":"206237901","MEAN_ELEMENT_THEORY":"SGP4","MEAN_MOTION_DDOT":"0.0000000000000","OBJECT_TYPE":"PAYLOAD","CLASSIFICATION_TYPE":"U","SEMIMAJOR_AXIS":"6925.344","REF_FRAME":"TEME","MEAN_ANOMALY":"282.2197","REV_AT_EPOCH":"7589","MEAN_MOTION_DOT":"0.00001382","PERIAPSIS":"546.150","MEAN_MOTION":"15.06401587","EPHEMERIS_TYPE":"0","DECAY_DATE":null,"OBJECT_ID":"2021-012R","CENTER_NAME":"EARTH","LAUNCH_DATE":"2021-02-16","FILE":"3496999","INCLINATION":"53.0639","ARG_OF_PERICENTER":"77.8964","TLE_LINE2":"2 47635  53.0639 334.8487 0001529  77.8964 282.2197 15.06401587 75895","PERIOD":"95.592","ECCENTRICITY":"0.00015290","TIME_SYSTEM":"UTC","RA_OF_ASC_NODE":"334.8487","COUNTRY_CODE":"US","EPOCH":"2022-06-15T19:07:09.221664","ELEMENT_SET_NO":"999"},{"OBJECT_NAME":"STARLINK-2013","APOAPSIS":"548.101","SITE":"AFETR","GP_ID":"206287405","MEAN_ELEMENT_THEORY":"SGP4","MEAN_MOTION_DDOT":"0.0000000000000","CLASSIFICATION_TYPE":"U","OBJECT_TYPE":"PAYLOAD","RCS_SIZE":"LARGE","BSTAR":"-0.00009832400000","TLE_LINE1":"1 47636U 21012S   22166.95743737 -.00001746  00000-0 -98324-4 0  9994","NORAD_CAT_ID":"47636","LAUNCH_DATE":"2021-02-16","FILE":"3497002","INCLINATION":"53.0558","TLE_LINE2":"2 47636  53.0558  49.1668 0001293  83.6632 276.4505 15.06402631 74863","ECCENTRICITY":"0.00012930","PERIOD":"95.592","ARG_OF_PERICENTER":"83.6632","TIME_SYSTEM":"UTC","RA_OF_ASC_NODE":"49.1668","EPOCH":"2022-06-15T22:58:42.588768","COUNTRY_CODE":"US","ELEMENT_SET_NO":"999","SEMIMAJOR_AXIS":"6925.340","REF_FRAME":"TEME","MEAN_ANOMALY":"276.4505","REV_AT_EPOCH":"7486","MEAN_MOTION_DOT":"-0.00001746","PERIAPSIS":"546.310","MEAN_MOTION":"15.06402631","EPHEMERIS_TYPE":"0","DECAY_DATE":null,"OBJECT_ID":"2021-012S","CENTER_NAME":"EARTH"},{"OBJECT_NAME":"STARLINK-2014","APOAPSIS":"548.530","SITE":"AFETR","GP_ID":"206288653","MEAN_ELEMENT_THEORY":"SGP4","MEAN_MOTION_DDOT":"0.0000000000000","CLASSIFICATION_TYPE":"U","OBJECT_TYPE":"PAYLOAD","RCS_SIZE":"LARGE","BSTAR":"0.00018574000000","TLE_LINE1":"1 47637U 21012T   22166.99429317  .00002486  00000-0  18574-3 0  9992","NORAD_CAT_ID":"47637","LAUNCH_DATE":"2021-02-16","FILE":"3497002","INCLINATION":"53.0545","TLE_LINE2":"2 47637  53.0545  49.0067 0001922  65.0093 295.1096 15.06404644 74887","ECCENTRICITY":"0.00019220","PERIOD":"95.592","ARG_OF_PERICENTER":"65.0093","TIME_SYSTEM":"UTC","RA_OF_ASC_NODE":"49.0067","EPOCH":"2022-06-15T23:51:46.929888","COUNTRY_CODE":"US","ELEMENT_SET_NO":"999","SEMIMAJOR_AXIS":"6925.334","REF_FRAME":"TEME","REV_AT_EPOCH":"7488","MEAN_ANOMALY":"295.1096","PERIAPSIS":"545.868","MEAN_MOTION_DOT":"0.00002486","MEAN_MOTION":"15.06404644","DECAY_DATE":null,"EPHEMERIS_TYPE":"0","OBJECT_ID":"2021-012T","CENTER_NAME":"EARTH"},{"MEAN_ELEMENT_THEORY":"SGP4","MEAN_MOTION_DDOT":"0.0000000000000","CLASSIFICATION_TYPE":"U","OBJECT_TYPE":"PAYLOAD","OBJECT_NAME":"STARLINK-2015","APOAPSIS":"548.340","SITE":"AFETR","GP_ID":"206237151","RCS_SIZE":"LARGE","BSTAR":"-0.00008262200000","TLE_LINE1":"1 47638U 21012U   22166.79295207 -.00001512  00000-0 -82622-4 0  9997","NORAD_CAT_ID":"47638","ECCENTRICITY":"0.00016260","TLE_LINE2":"2 47638  53.0533 334.8982 0001626  97.8449 262.2725 15.06399960 75873","PERIOD":"95.592","ARG_OF_PERICENTER":"97.8449","TIME_SYSTEM":"UTC","RA_OF_ASC_NODE":"334.8982","EPOCH":"2022-06-15T19:01:51.058848","COUNTRY_CODE":"US","ELEMENT_SET_NO":"999","LAUNCH_DATE":"2021-02-16","FILE":"3496999","INCLINATION":"53.0533","OBJECT_ID":"2021-012U","CENTER_NAME":"EARTH","SEMIMAJOR_AXIS":"6925.349","REF_FRAME":"TEME","MEAN_ANOMALY":"262.2725","REV_AT_EPOCH":"7587","PERIAPSIS":"546.088","MEAN_MOTION":"15.06399960","MEAN_MOTION_DOT":"-0.00001512","EPHEMERIS_TYPE":"0","DECAY_DATE":null},{"EPOCH":"2022-06-15T23:19:56.615520","COUNTRY_CODE":"US","ELEMENT_SET_NO":"999","RA_OF_ASC_NODE":"49.1029","PERIOD":"95.592","TLE_LINE2":"2 47639  53.0555  49.1029 0001579  66.6560 293.4595 15.06396843 74856","ECCENTRICITY":"0.00015790","ARG_OF_PERICENTER":"66.6560","TIME_SYSTEM":"UTC","FILE":"3497002","INCLINATION":"53.0555","LAUNCH_DATE":"2021-02-16","CENTER_NAME":"EARTH","OBJECT_ID":"2021-012V","PERIAPSIS":"546.130","MEAN_MOTION":"15.06396843","MEAN_MOTION_DOT":"-0.00000503","DECAY_DATE":null,"EPHEMERIS_TYPE":"0","MEAN_ANOMALY":"293.4595","REV_AT_EPOCH":"7485","REF_FRAME":"TEME","SEMIMAJOR_AXIS":"6925.358","CLASSIFICATION_TYPE":"U","OBJECT_TYPE":"PAYLOAD","MEAN_ELEMENT_THEORY":"SGP4","MEAN_MOTION_DDOT":"0.0000000000000","SITE":"AFETR","GP_ID":"206287156","APOAPSIS":"548.317","OBJECT_NAME":"STARLINK-2016","TLE_LINE1":"1 47639U 21012V   22166.97218305 -.00000503  00000-0 -14881-4 0  9993","NORAD_CAT_ID":"47639","BSTAR":"-0.00001488100000","RCS_SIZE":"LARGE"},{"MEAN_MOTION_DDOT":"0.0000000000000","MEAN_ELEMENT_THEORY":"SGP4","OBJECT_TYPE":"PAYLOAD","CLASSIFICATION_TYPE":"U","OBJECT_NAME":"STARLINK-2018","GP_ID":"206287905","SITE":"AFETR","APOAPSIS":"548.500","BSTAR":"-0.00003441300000","RCS_SIZE":"LARGE","NORAD_CAT_ID":"47640","TLE_LINE1":"1 47640U 21012W   22167.03300330 -.00000794  00000-0 -34413-4 0  9998","TIME_SYSTEM":"UTC","PERIOD":"95.593","TLE_LINE2":"2 47640  53.0561  68.8193 0001812  59.6066 300.5102 15.06389557 74609","ARG_OF_PERICENTER":"59.6066","ECCENTRICITY":"0.00018120","ELEMENT_SET_NO":"999","COUNTRY_CODE":"US","EPOCH":"2022-06-16T00:47:31.485120","RA_OF_ASC_NODE":"68.8193","INCLINATION":"53.0561","FILE":"3497002","LAUNCH_DATE":"2021-02-16","CENTER_NAME":"EARTH","OBJECT_ID":"2021-012W","REF_FRAME":"TEME","SEMIMAJOR_AXIS":"6925.381","DECAY_DATE":null,"EPHEMERIS_TYPE":"0","MEAN_MOTION_DOT":"-0.00000794","PERIAPSIS":"545.991","MEAN_MOTION":"15.06389557","REV_AT_EPOCH":"7460","MEAN_ANOMALY":"300.5102"},{"TIME_SYSTEM":"UTC","TLE_LINE2":"2 47641  53.0567 336.1703 0001294  86.7728 273.3409 15.06393080 75833","ECCENTRICITY":"0.00012940","PERIOD":"95.593","ARG_OF_PERICENTER":"86.7728","ELEMENT_SET_NO":"999","COUNTRY_CODE":"US","EPOCH":"2022-06-15T12:18:27.667008","RA_OF_ASC_NODE":"336.1703","INCLINATION":"53.0567","FILE":"3496794","LAUNCH_DATE":"2021-02-16","CENTER_NAME":"EARTH","OBJECT_ID":"2021-012X","REF_FRAME":"TEME","SEMIMAJOR_AXIS":"6925.370","EPHEMERIS_TYPE":"0","DECAY_DATE":null,"PERIAPSIS":"546.339","MEAN_MOTION_DOT":"0.00000840","MEAN_MOTION":"15.06393080","MEAN_ANOMALY":"273.3409","REV_AT_EPOCH":"7583","MEAN_MOTION_DDOT":"0.0000000000000","MEAN_ELEMENT_THEORY":"SGP4","CLASSIFICATION_TYPE":"U","OBJECT_TYPE":"PAYLOAD","OBJECT_NAME":"STARLINK-2019","GP_ID":"206206712","SITE":"AFETR","APOAPSIS":"548.131","BSTAR":"0.00007527500000","RCS_SIZE":"LARGE","NORAD_CAT_ID":"47641","TLE_LINE1":"1 47641U 21012X   22166.51282022  .00000840  00000-0  75275-4 0  9999"},{"FILE":"3497002","INCLINATION":"53.0551","LAUNCH_DATE":"2021-02-16","EPOCH":"2022-06-15T23:20:35.791008","COUNTRY_CODE":"US","ELEMENT_SET_NO":"999","RA_OF_ASC_NODE":"64.0832","TLE_LINE2":"2 47642  53.0551  64.0832 0001284  65.3317 294.7806 15.06401151 74659","ARG_OF_PERICENTER":"65.3317","PERIOD":"95.592","ECCENTRICITY":"0.00012840","TIME_SYSTEM":"UTC","PERIAPSIS":"546.321","MEAN_MOTION":"15.06401151","MEAN_MOTION_DOT":"-0.00000595","EPHEMERIS_TYPE":"0","DECAY_DATE":null,"REV_AT_EPOCH":"7465","MEAN_ANOMALY":"294.7806","REF_FRAME":"TEME","SEMIMAJOR_AXIS":"6925.345","CENTER_NAME":"EARTH","OBJECT_ID":"2021-012Y","SITE":"AFETR","GP_ID":"206288901","APOAPSIS":"548.099","OBJECT_NAME":"STARLINK-2020","OBJECT_TYPE":"PAYLOAD","CLASSIFICATION_TYPE":"U","MEAN_ELEMENT_THEORY":"SGP4","MEAN_MOTION_DDOT":"0.0000000000000","TLE_LINE1":"1 47642U 21012Y   22166.97263647 -.00000595  00000-0 -21073-4 0  9998","NORAD_CAT_ID":"47642","BSTAR":"-0.00002107300000","RCS_SIZE":"LARGE"},{"LAUNCH_DATE":"2021-02-16","INCLINATION":"53.0564","FILE":"3497002","TIME_SYSTEM":"UTC","ECCENTRICITY":"0.00019190","TLE_LINE2":"2 47643  53.0564  49.0406 0001919  62.7851 297.3333 15.06403608 74870","PERIOD":"95.592","ARG_OF_PERICENTER":"62.7851","RA_OF_ASC_NODE":"49.0406","ELEMENT_SET_NO":"999","COUNTRY_CODE":"US","EPOCH":"2022-06-15T23:41:09.462048","SEMIMAJOR_AXIS":"6925.337","REF_FRAME":"TEME","MEAN_ANOMALY":"297.3333","REV_AT_EPOCH":"7487","EPHEMERIS_TYPE":"0","DECAY_DATE":null,"PERIAPSIS":"545.874","MEAN_MOTION":"15.06403608","MEAN_MOTION_DOT":"0.00001385","OBJECT_ID":"2021-012Z","CENTER_NAME":"EARTH","OBJECT_NAME":"STARLINK-2022","APOAPSIS":"548.531","GP_ID":"206287657","SITE":"AFETR","MEAN_MOTION_DDOT":"0.0000000000000","MEAN_ELEMENT_THEORY":"SGP4","CLASSIFICATION_TYPE":"U","OBJECT_TYPE":"PAYLOAD","RCS_SIZE":"LARGE","BSTAR":"0.00011185000000","NORAD_CAT_ID":"47643","TLE_LINE1":"1 47643U 21012Z   22166.98691507  .00001385  00000-0  11185-3 0  9998"},{"OBJECT_ID":"2021-012AA","CENTER_NAME":"EARTH","REV_AT_EPOCH":"7460","MEAN_ANOMALY":"295.6220","MEAN_MOTION":"15.06402258","PERIAPSIS":"545.931","MEAN_MOTION_DOT":"0.00002725","EPHEMERIS_TYPE":"0","DECAY_DATE":null,"SEMIMAJOR_AXIS":"6925.342","REF_FRAME":"TEME","RA_OF_ASC_NODE":"68.9743","EPOCH":"2022-06-15T23:59:44.455776","COUNTRY_CODE":"US","ELEMENT_SET_NO":"999","TLE_LINE2":"2 47644  53.0559  68.9743 0001842  64.4960 295.6220 15.06402258 74601","PERIOD":"95.592","ECCENTRICITY":"0.00018420","ARG_OF_PERICENTER":"64.4960","TIME_SYSTEM":"UTC","LAUNCH_DATE":"2021-02-16","FILE":"3497002","INCLINATION":"53.0559","TLE_LINE1":"1 47644U 21012AA  22166.99982009  .00002725  00000-0  20176-3 0  9999","NORAD_CAT_ID":"47644","RCS_SIZE":"LARGE","BSTAR":"0.00020176000000","OBJECT_TYPE":"PAYLOAD","CLASSIFICATION_TYPE":"U","MEAN_ELEMENT_THEORY":"SGP4","MEAN_MOTION_DDOT":"0.0000000000000","APOAPSIS":"548.482","SITE":"AFETR","GP_ID":"206287406","OBJECT_NAME":"STARLINK-2026"}];
